OBJECT_NAME,OBJECT_ID,EPOCH,MEAN_MOTION,ECCENTRICITY,INCLINATION,RA_OF_ASC_NODE,ARG_OF_PERICENTER,MEAN_ANOMALY,EPHEMERIS_TYPE,CLASSIFICATION_TYPE,NORAD_CAT_ID,ELEMENT_SET_NO,REV_AT_EPOCH,BSTAR,MEAN_MOTION_DOT,MEAN_MOTION_DDOT
HAWK-10A,2024-149CA,2026-06-19T18:39:17.367840,14.96524133,.00048779,97.6899,246.6442,71.6468,288.5284,0,U,60540,999,10037,.926181E-4,.996E-5,0
UMBRA-09,2024-149CB,2026-06-19T18:28:44.105952,15.18109295,.0000628,97.6955,258.0212,258.1312,101.9851,0,U,60541,999,10111,.54655374E-3,.11086E-3,0
QPS-SAR-8 (AMATERU-IV),2024-149CC,2026-06-20T04:29:40.635168,15.04152467,.00044913,97.6648,250.3123,102.3029,257.8700,0,U,60542,999,10072,.26270595E-3,.3584E-4,0
ARCTIC WEATHER SATELLITE,2024-149CD,2026-06-19T18:33:16.903584,14.89785663,.00036338,97.6804,241.1649,99.3192,260.8437,0,U,60543,999,9968,.63021152E-4,.551E-5,0
CAPELLA-15 (ACADIA-5),2024-149CE,2026-06-20T04:56:02.240736,14.92410322,.00045518,97.6768,244.0335,70.6196,289.5515,0,U,60544,999,10030,.31683956E-3,.319E-4,0
HAWK-10B,2024-149CF,2026-06-19T18:39:04.375008,14.96523125,.00068201,97.6819,245.9967,85.6924,274.5077,0,U,60545,999,10037,.84625194E-4,.905E-5,0
ICEYE-X39,2024-149CG,2026-06-20T05:05:56.404896,14.99909997,.00056416,97.6757,248.1948,110.8245,249.3583,0,U,60546,999,10057,.19378919E-3,.2346E-4,0
UMBRA-10,2024-149CH,2026-06-20T05:32:29.803200,15.18117660,.00004498,97.6973,258.5167,96.2050,263.9234,0,U,60547,999,10119,.63692624E-3,.12937E-3,0
ICEYE-X33,2024-149CJ,2026-06-20T04:03:42.562368,15.00886995,.00018635,97.7287,250.2934,87.7623,272.3814,0,U,60548,999,10065,.30043992E-3,.3764E-4,0
ICEYE-X40,2024-149CK,2026-06-20T04:11:56.646816,14.97952761,.00064517,97.6821,247.6228,73.4508,286.7422,0,U,60549,999,10052,.12965842E-3,.1471E-4,0
SATELIOT_1,2024-149CL,2026-06-20T00:46:31.234080,14.98081894,.00083965,97.6759,246.8828,72.2480,287.9659,0,U,60550,999,10049,.18921942E-3,.2182E-4,0
BRO-14,2024-149CM,2026-06-20T06:31:17.753664,14.96180082,.00080649,97.6871,246.9941,89.0835,271.1310,0,U,60551,999,10045,.75237147E-4,.791E-5,0
SATELIOT_3,2024-149CN,2026-06-20T05:00:13.227552,14.98062219,.00059454,97.6815,247.8504,79.7937,280.3956,0,U,60552,999,10053,.13564656E-3,.1546E-4,0
BRO-15,2024-149CP,2026-06-19T17:15:36.186048,14.96168721,.00093107,97.6803,246.0506,80.7782,279.4492,0,U,60553,999,10038,.11371806E-3,.1225E-4,0
UM5-RIBAT,2024-149CQ,2026-06-20T04:55:30.846432,15.01088825,.00033068,97.6628,248.9652,56.9260,303.2281,0,U,60554,999,10064,.17870308E-3,.2227E-4,0
UM5-EOSAT,2024-149CR,2026-06-20T04:05:47.469984,15.01552474,.00088875,97.6716,249.8717,105.2114,255.0094,0,U,60555,999,10066,.28428595E-3,.3625E-4,0
LASARSAT,2024-247Q,2026-06-20T06:29:39.147072,15.46534749,.0007836,44.9733,244.8864,348.4451,11.6258,0,U,62391,999,8379,.56522673E-3,.28493E-3,0
CROCUBE,2024-247T,2026-06-19T11:46:17.971392,15.48397693,.00077409,44.9701,246.5654,349.0739,10.9982,0,U,62394,999,8370,.60621754E-3,.32668E-3,0
TEVEL2-4,2025-052D,2026-06-20T04:21:26.597376,15.34700095,.00049255,97.3892,67.5778,97.4797,262.7005,0,U,63213,999,7057,.48629711E-3,.16297E-3,0
TEVEL2-5,2025-052E,2026-06-20T06:25:21.137664,15.34527610,.00048947,97.3892,67.6107,98.9294,261.2503,0,U,63214,999,7058,.47944881E-3,.15978E-3,0
TEVEL2-6,2025-052F,2026-06-20T06:43:12.625536,15.34492782,.00047592,97.3898,67.6078,99.4633,260.7149,0,U,63215,999,7058,.47994421E-3,.15976E-3,0
TEVEL2-1,2025-052H,2026-06-20T04:18:41.324544,15.33952529,.00048734,97.3873,67.1285,107.5627,252.6148,0,U,63217,999,7055,.47659428E-3,.15594E-3,0
TEVEL2-3,2025-052J,2026-06-19T15:39:21.266208,15.33991826,.00048387,97.3873,66.6229,109.1056,251.0711,0,U,63218,999,7047,.45509628E-3,.14905E-3,0
TEVEL2-2,2025-052K,2026-06-20T04:19:06.949056,15.33961605,.00048713,97.3871,67.1308,108.3125,251.8648,0,U,63219,999,7055,.47832708E-3,.15656E-3,0
TEVEL2-9,2025-052AD,2026-06-20T05:26:14.066016,15.31975924,.00080447,97.3933,66.5461,122.3024,237.8998,0,U,63237,999,7049,.44622807E-3,.13721E-3,0
TEVEL2-7,2025-052AE,2026-06-20T04:51:54.637344,15.31676701,.00080762,97.3934,66.4373,122.8867,237.3153,0,U,63238,999,7048,.43885308E-3,.13367E-3,0
TEVEL2-8,2025-052AF,2026-06-19T16:31:13.361376,15.31647647,.00080754,97.3937,65.9009,124.5955,235.6049,0,U,63239,999,7040,.41221495E-3,.12538E-3,0
FORESAIL-1 PRIME,2025-276DS,2026-06-19T10:25:32.106432,15.18719306,.00039613,97.4197,243.6644,98.6161,261.5522,0,U,66778,999,3074,.19871349E-3,.4058E-4,0
